COSMOS 2251 DEB         
1 33757U 93036E   24269.87019359  .00000353  00000+0  14017-3 0  9997
2 33757  74.0365  51.9793 0014856 180.8636 341.0385 14.32384732816547
